NORAD_CAT_ID,OBJECT_NAME,OBJECT_TYPE,EPOCH,MEAN_MOTION,ECCENTRICITY,INCLINATION,RA_OF_ASC_NODE,ARG_OF_PERICENTER,MEAN_ANOMALY,BSTAR,MEAN_MOTION_DOT,MEAN_MOTION_DDOT,TLE_LINE0,TLE_LINE1,TLE_LINE2,SEMIMAJOR_AXIS,PERIOD,APOGEE,PERIGEE,DECAYED
51732.0,STARLINK-3518,PAYLOAD,2022-07-08 22:00:01,15.08840375,0.0001952,53.2181,213.5931,51.2378,85.9199,0.0022726999999999,0.00036068,0.0,0 STARLINK-3518,1 51732U 22016U   22189.91668981  .00036068  00000-0  22727-2 0  9994,2 51732  53.2181 213.5931 0001952  51.2378  85.9199 15.08840375  1303,6917.879,95.438,541.095,538.394,0.0
51732.0,STARLINK-3518,PAYLOAD,2022-07-09 14:00:01,15.08828611,0.0002082,53.2176,210.6022,45.1087,115.193,0.00081047,0.0001262999999999,0.0,0 STARLINK-3518,1 51732U 22016U   22190.58334491  .00012630  00000-0  81047-3 0  9995,2 51732  53.2176 210.6022 0002082  45.1087 115.1930 15.08828611  1308,6917.915,95.438,541.221,538.34,0.0
51732.0,STARLINK-3518,PAYLOAD,2022-07-09 16:00:00,15.08849581,0.0002024,53.2176,210.2277,46.64,206.5526,-0.0020313,-0.0003248,0.0,0 STARLINK-3518,1 51732U 22016U   22190.66667824 -.00032480  00000-0 -20313-2 0  9998,2 51732  53.2176 210.2277 0002024  46.6400 206.5526 15.08849581 22552,6917.851,95.437,541.116,538.316,0.0
51732.0,STARLINK-3518,PAYLOAD,2022-07-09 20:00:01,15.08825127,0.0001906,53.2178,209.4786,50.1569,28.8403,0.00074528,0.00011588,0.0,0 STARLINK-3518,1 51732U 22016U   22190.83334491  .00011588  00000-0  74528-3 0  9990,2 51732  53.2178 209.4786 0001906  50.1569  28.8403 15.08825127  1302,6917.926,95.438,541.109,538.472,0.0
51732.0,STARLINK-3518,PAYLOAD,2022-07-10 06:00:00,15.08848453,0.0002021,53.2179,207.6081,49.4427,134.0344,-0.0016422999999999,-0.00026337,0.0,0 STARLINK-3518,1 51732U 22016U   22191.25001157 -.00026337  00000-0 -16423-2 0  9996,2 51732  53.2179 207.6081 0002021  49.4427 134.0344 15.08848453 22645,6917.855,95.437,541.118,538.321,0.0
51732.0,STARLINK-3518,PAYLOAD,2022-07-10 14:00:01,15.0883729,0.0002088,53.2169,206.1134,46.9897,148.0765,8.565299999999999e-05,1.075e-05,0.0,0 STARLINK-3518,1 51732U 22016U   22191.58334491  .00001075  00000-0  85653-4 0  9995,2 51732  53.2169 206.1134 0002088  46.9897 148.0765 15.08837290  1302,6917.889,95.438,541.198,538.309,0.0
51732.0,STARLINK-3518,PAYLOAD,2022-07-10 22:00:00,15.08817918,0.0001926,53.2167,204.6154,52.8714,153.795,0.0023738,0.00037671,0.0,0 STARLINK-3518,1 51732U 22016U   22191.91667824  .00037671  00000-0  23738-2 0  9996,2 51732  53.2167 204.6154 0001926  52.8714 153.7950 15.08817918 22744,6917.948,95.439,541.145,538.48,0.0
51732.0,STARLINK-3518,PAYLOAD,2022-07-11 14:00:01,15.08846315,0.0002119,53.2161,201.6244,48.596,181.248,-0.00056347,-9.247e-05,0.0,0 STARLINK-3518,1 51732U 22016U   22192.58334491 -.00009247  00000-0 -56347-3 0  9994,2 51732  53.2161 201.6244 0002119  48.5960 181.2480 15.08846315  1301,6917.861,95.437,541.192,538.26,0.0
51732.0,STARLINK-3518,PAYLOAD,2022-07-11 22:00:00,15.08821856,0.0001996,53.216,200.1264,54.3286,187.1212,0.0024195,0.0003841,0.0,0 STARLINK-3518,1 51732U 22016U   22192.91667824  .00038410  00000-0  24195-2 0  9997,2 51732  53.2160 200.1264 0001996  54.3286 187.1212 15.08821856  1305,6917.936,95.439,541.182,538.42,0.0
51732.0,STARLINK-3518,PAYLOAD,2022-07-12 14:00:01,15.08858492,0.0002174,53.2158,197.1352,49.6236,215.017,-0.0010031,-0.00016226,0.0,0 STARLINK-3518,1 51732U 22016U   22193.58334491 -.00016226  00000-0 -10031-2 0  9999,2 51732  53.2158 197.1352 0002174  49.6236 215.0170 15.08858492 22994,6917.824000000001,95.436,541.193,538.185,0.0
51732.0,STARLINK-3518,PAYLOAD,2022-07-12 22:00:00,15.08834964,0.0002063,53.2159,195.6371,55.1177,221.14,0.002107,0.000334,0.0,0 STARLINK-3518,1 51732U 22016U   22193.91667824  .00033400  00000-0  21070-2 0  9991,2 51732  53.2159 195.6371 0002063  55.1177 221.1400 15.08834964  1306,6917.896,95.438,541.188,538.3340000000002,0.0
51732.0,STARLINK-3518,PAYLOAD,2022-07-13 14:00:01,15.08845593,0.0002167,53.2161,192.6458,48.4193,251.0339,-0.0014134,-0.00022716,0.0,0 STARLINK-3518,1 51732U 22016U   22194.58334491 -.00022716  00000-0 -14134-2 0  9999,2 51732  53.2161 192.6458 0002167  48.4193 251.0339 15.08845593  1303,6917.863,95.437,541.227,538.229,0.0
51732.0,STARLINK-3518,PAYLOAD,2022-07-13 16:00:00,15.08848833,0.0002145,53.2163,192.2711,50.0951,342.2553,-0.0020438,-0.00032677,0.0,0 STARLINK-3518,1 51732U 22016U   22194.66667824 -.00032677  00000-0 -20438-2 0  9998,2 51732  53.2163 192.2711 0002145  50.0951 342.2553 15.08848833 23169,6917.853,95.437,541.202,538.235,0.0
51732.0,STARLINK-3518,PAYLOAD,2022-07-13 22:00:00,15.08815285,0.0002092,53.2164,191.1478,54.3945,256.6549,0.0026536,0.00042169,0.0,0 STARLINK-3518,1 51732U 22016U   22194.91667824  .00042169  00000-0  26536-2 0  9996,2 51732  53.2164 191.1478 0002092  54.3945 256.6549 15.08815285  1309,6917.956,95.439,541.268,538.374,0.0
51732.0,STARLINK-3518,PAYLOAD,2022-07-14 08:00:01,15.08832142,0.0002315,53.2168,189.2793,50.7338,4.8039,0.00074269,0.00011549,0.0,0 STARLINK-3518,1 51732U 22016U   22195.33334491  .00011549  00000-0  74269-3 0  9999,2 51732  53.2168 189.2793 0002315  50.7338   4.8039 15.08832142 23262,6917.904,95.438,541.371,538.168,0.0
51732.0,STARLINK-3518,PAYLOAD,2022-07-14 14:00:01,15.08857824,0.0002252,53.2168,188.1565,49.5963,284.6277,-0.0017672,-0.00028318,0.0,0 STARLINK-3518,1 51732U 22016U   22195.58334491 -.00028318  00000-0 -17672-2 0  9994,2 51732  53.2168 188.1565 0002252  49.5963 284.6277 15.08857824  1304,6917.826,95.436,541.249,538.133,0.0
51732.0,STARLINK-3518,PAYLOAD,2022-07-14 22:00:00,15.088378,0.0002118,53.2173,186.6587,54.7615,291.0696,-0.00037721,-6.286e-05,0.0,0 STARLINK-3518,1 51732U 22016U   22195.91667824 -.00006286  00000-0 -37721-3 0  9998,2 51732  53.2173 186.6587 0002118  54.7615 291.0696 15.08837800  1309,6917.887,95.438,541.217,538.2869999999998,0.0
51732.0,STARLINK-3518,PAYLOAD,2022-07-15 06:00:00,15.08826166,0.000226,53.2175,185.1641,50.3551,307.0694,-0.00081103,-0.00013168,0.0,0 STARLINK-3518,1 51732U 22016U   22196.25001157 -.00013168  00000-0 -81103-3 0  9997,2 51732  53.2175 185.1641 0002260  50.3551 307.0694 15.08826166 23397,6917.9230000000025,95.438,541.351,538.224,0.0
51732.0,STARLINK-3518,PAYLOAD,2022-07-15 14:00:01,15.08843319,0.0002225,53.2176,183.6674,49.6726,319.3216,-0.0019091,-0.00030547,0.0,0 STARLINK-3518,1 51732U 22016U   22196.58334491 -.00030547  00000-0 -19091-2 0  9999,2 51732  53.2176 183.6674 0002225  49.6726 319.3216 15.08843319  1305,6917.87,95.437,541.274,538.196,0.0
51732.0,STARLINK-3518,PAYLOAD,2022-07-15 22:00:00,15.08816276,0.0002122,53.2181,182.1699,55.7085,324.8744,0.0023988,0.00038071,0.0,0 STARLINK-3518,1 51732U 22016U   22196.91667824  .00038071  00000-0  23988-2 0  9993,2 51732  53.2181 182.1699 0002122  55.7085 324.8744 15.08816276 23509,6917.953,95.439,541.286,538.35,0.0
51732.0,STARLINK-3518,PAYLOAD,2022-07-16 14:00:01,15.08857994,0.0002234,53.2181,179.1784,51.9615,351.7945,-0.001919,-0.00030715,0.0,0 STARLINK-3518,1 51732U 22016U   22197.58334491 -.00030715  00000-0 -19190-2 0  9997,2 51732  53.2181 179.1784 0002234  51.9615 351.7945 15.08857994 23606,6917.825,95.436,541.236,538.145,0.0
51732.0,STARLINK-3518,PAYLOAD,2022-07-16 22:00:00,15.08839064,0.0002113,53.2185,177.6812,57.5444,357.8185,0.0019693,0.00031192,0.0,0 STARLINK-3518,1 51732U 22016U   22197.91667824  .00031192  00000-0  19693-2 0  9999,2 51732  53.2185 177.6812 0002113  57.5444 357.8185 15.08839064  1307,6917.8830000000025,95.438,541.21,538.2869999999998,0.0
51732.0,STARLINK-3518,PAYLOAD,2022-07-17 06:00:00,15.08854293,0.0002229,53.2184,176.1867,52.838,14.1347,-0.0026822,-0.00042741,0.0,0 STARLINK-3518,1 51732U 22016U   22198.25001157 -.00042741  00000-0 -26822-2 0  9994,2 51732  53.2184 176.1867 0002229  52.8380  14.1347 15.08854293 23707,6917.837,95.437,541.244,538.16,0.0
51732.0,STARLINK-3518,PAYLOAD,2022-07-17 14:00:01,15.08846179,0.0002124,53.2182,174.6896,52.7287,25.8328,-0.0018333,-0.00029353,0.0,0 STARLINK-3518,1 51732U 22016U   22198.58334491 -.00029353  00000-0 -18333-2 0  9992,2 51732  53.2182 174.6896 0002124  52.7287  25.8328 15.08846179  1303,6917.861999999999,95.437,541.196,538.257,0.0
51732.0,STARLINK-3518,PAYLOAD,2022-07-17 22:00:00,15.0882788,0.000205,53.2183,173.1925,58.6742,31.4737,0.0016300999999999,0.00025742,0.0,0 STARLINK-3518,1 51732U 22016U   22198.91667824  .00025742  00000-0  16301-2 0  9997,2 51732  53.2183 173.1925 0002050  58.6742  31.4737 15.08827880 23804,6917.917,95.438,541.201,538.364,0.0
51732.0,STARLINK-3518,PAYLOAD,2022-07-18 14:00:01,15.08859068,0.0002125,53.2178,170.201,55.2426,58.0884,-0.0017863,-0.0002862,0.0,0 STARLINK-3518,1 51732U 22016U   22199.58334491 -.00028620  00000-0 -17863-2 0  9996,2 51732  53.2178 170.2010 0002125  55.2426  58.0884 15.08859068  1308,6917.821999999999,95.436,541.1569999999998,538.217,0.0
51732.0,STARLINK-3518,PAYLOAD,2022-07-18 16:00:00,15.08848376,0.0002057,53.2179,169.8264,56.828,149.408,-0.00058633,-9.61e-05,0.0,0 STARLINK-3518,1 51732U 22016U   22199.66667824 -.00009610  00000-0 -58633-3 0  9993,2 51732  53.2179 169.8264 0002057  56.8280 149.4080 15.08848376 23917,6917.855,95.437,541.143,538.297,0.0
51732.0,STARLINK-3518,PAYLOAD,2022-07-18 22:00:00,15.08857851,0.000204,53.2178,168.704,60.2474,64.6863,-0.0023879,-0.0003811,0.0,0 STARLINK-3518,1 51732U 22016U   22199.91667824 -.00038110  00000-0 -23879-2 0  9991,2 51732  53.2178 168.7040 0002040  60.2474  64.6863 15.08857851  1306,6917.826,95.436,541.102,538.28,0.0
51732.0,STARLINK-3518,PAYLOAD,2022-07-19 14:00:01,15.08846509,0.000205,53.2174,165.7121,55.4738,92.6375,-0.0015033,-0.00024138,0.0,0 STARLINK-3518,1 51732U 22016U   22200.58334491 -.00024138  00000-0 -15033-2 0  9996,2 51732  53.2174 165.7121 0002050  55.4738  92.6375 15.08846509  1306,6917.86,95.437,541.144,538.307,0.0
